{
"type": "FeatureCollection",
"name": "gael_towns",
"crs": { "type": "name", "properties": { "name": "urn:ogc:def:crs:EPSG::2157" } },
"features": [
{ "type": "Feature", "properties": { "OBJECTID_12": 84, "SETTLEMENT": "35005", "SETTL_NAME": "Galway city and suburbs", "EAST": 530120.88638000004, "NORTH": 726533.12725899997, "GUID": "4DB393A8-D39C-4EB9-9320-4B85F38C2A0E" }, "geometry": { "type": "Point", "coordinates": [ 530120.886380000039935, 726533.127258999971673 ] } },
{ "type": "Feature", "properties": { "OBJECTID_12": 101, "SETTLEMENT": "33058", "SETTL_NAME": "Carraig Airt", "EAST": 613238.53864599997, "NORTH": 936660.62131399999, "GUID": "464E6230-E4BC-4845-936E-4CEF6EA3ACBC" }, "geometry": { "type": "Point", "coordinates": [ 613238.538645999971777, 936660.62131399998907 ] } },
{ "type": "Feature", "properties": { "OBJECTID_12": 184, "SETTLEMENT": "25005", "SETTL_NAME": "An Rinn", "EAST": 629514.14130400005, "NORTH": 588600.62356500002, "GUID": "4950795F-88CF-4575-B087-D37847ABFD8D" }, "geometry": { "type": "Point", "coordinates": [ 629514.141304000047967, 588600.623565000016242 ] } },
{ "type": "Feature", "properties": { "OBJECTID_12": 376, "SETTLEMENT": "29010", "SETTL_NAME": "Béal An Mhuirthead", "EAST": 470479.32171699998, "NORTH": 832240.598031, "GUID": "8993F9AB-D191-462B-B4DC-73A19A5C6ECC" }, "geometry": { "type": "Point", "coordinates": [ 470479.321716999984346, 832240.598031 ] } },
{ "type": "Feature", "properties": { "OBJECTID_12": 380, "SETTLEMENT": "29025", "SETTL_NAME": "Gob An Choire", "EAST": 472534.50759300002, "NORTH": 798961.18592600001, "GUID": "448E745D-DC46-4986-8796-BA5D1FB4BF9A" }, "geometry": { "type": "Point", "coordinates": [ 472534.507593000016641, 798961.185926 ] } },
{ "type": "Feature", "properties": { "OBJECTID_12": 512, "SETTLEMENT": "18048", "SETTL_NAME": "Baile Mhic Íre", "EAST": 521145.90964299999, "NORTH": 576802.76799299999, "GUID": "A2576257-DF26-4EE0-A7FF-65D7127D0B15" }, "geometry": { "type": "Point", "coordinates": [ 521145.909643, 576802.767992999986745 ] } },
{ "type": "Feature", "properties": { "OBJECTID_12": 533, "SETTLEMENT": "27041", "SETTL_NAME": "Bearna", "EAST": 522407.03812899999, "NORTH": 723102.15631700004, "GUID": "9C942D6C-74F7-4DE6-8C32-B9D064178530" }, "geometry": { "type": "Point", "coordinates": [ 522407.038129, 723102.15631700004451 ] } },
{ "type": "Feature", "properties": { "OBJECTID_12": 553, "SETTLEMENT": "27034", "SETTL_NAME": "An Spidéal", "EAST": 512939.77634500002, "NORTH": 722518.64481299999, "GUID": "A42EF9AD-955D-4851-A976-B01A8DBE1747" }, "geometry": { "type": "Point", "coordinates": [ 512939.776345000020228, 722518.644813 ] } },
{ "type": "Feature", "properties": { "OBJECTID_12": 554, "SETTLEMENT": "27019", "SETTL_NAME": "An Cheathrú Rua", "EAST": 493066.50966600003, "NORTH": 725211.75242499996, "GUID": "7D2B1C2A-B07E-4FC2-92C2-9E03DA5F3024" }, "geometry": { "type": "Point", "coordinates": [ 493066.50966600002721, 725211.75242499995511 ] } },
{ "type": "Feature", "properties": { "OBJECTID_12": 555, "SETTLEMENT": "33055", "SETTL_NAME": "Bun Na Leaca", "EAST": 582104.99761199998, "NORTH": 930508.92250500002, "GUID": "5AD9EBD5-634B-48B1-AAD6-DFF037483AC4" }, "geometry": { "type": "Point", "coordinates": [ 582104.99761199997738, 930508.922505000024103 ] } },
{ "type": "Feature", "properties": { "OBJECTID_12": 562, "SETTLEMENT": "33017", "SETTL_NAME": "An Charraig", "EAST": 559061.98961199995, "NORTH": 879137.39019499999, "GUID": "73D63838-0908-454B-815A-2E09AB311504" }, "geometry": { "type": "Point", "coordinates": [ 559061.989611999946646, 879137.390194999985397 ] } },
{ "type": "Feature", "properties": { "OBJECTID_12": 594, "SETTLEMENT": "27007", "SETTL_NAME": "Maigh Cuilinn", "EAST": 521319.37411199999, "NORTH": 732362.20280900004, "GUID": "30D4DE8E-1AC6-4CBC-8BD6-691988059D81" }, "geometry": { "type": "Point", "coordinates": [ 521319.374112, 732362.202809000038542 ] } },
{ "type": "Feature", "properties": { "OBJECTID_12": 606, "SETTLEMENT": "33024", "SETTL_NAME": "Rann Na Feirste", "EAST": 580209.26349799999, "NORTH": 921098.17949200002, "GUID": "08BA6CE7-DFB7-4B58-A21A-F4167A25007E" }, "geometry": { "type": "Point", "coordinates": [ 580209.263497999985702, 921098.179492000024766 ] } },
{ "type": "Feature", "properties": { "OBJECTID_12": 610, "SETTLEMENT": "27033", "SETTL_NAME": "Na Forbacha", "EAST": 519255.24888099998, "NORTH": 722791.68289399997, "GUID": "2478171F-C5B1-4CE4-BABA-5EE20CCF48B7" }, "geometry": { "type": "Point", "coordinates": [ 519255.2488809999777, 722791.682893999968655 ] } },
{ "type": "Feature", "properties": { "OBJECTID_12": 618, "SETTLEMENT": "19007", "SETTL_NAME": "Dingle-Daingean Uí Chuis", "EAST": 444420.80696399999, "NORTH": 601200.893209, "GUID": "5314C840-F0C3-4FFC-8254-6B4CACF31C4F" }, "geometry": { "type": "Point", "coordinates": [ 444420.806963999988511, 601200.893209 ] } },
{ "type": "Feature", "properties": { "OBJECTID_12": 622, "SETTLEMENT": "35021", "SETTL_NAME": "Conga", "EAST": 514703.64360299997, "NORTH": 755651.24157099996, "GUID": "A3121323-2F30-4B5A-A0A3-183A3107CCB6" }, "geometry": { "type": "Point", "coordinates": [ 514703.643602999974973, 755651.241570999962278 ] } },
{ "type": "Feature", "properties": { "OBJECTID_12": 678, "SETTLEMENT": "27006", "SETTL_NAME": "Cill Rónáin", "EAST": 488145.30978900002, "NORTH": 709232.00037599995, "GUID": "0B90F810-8325-4529-B5E8-860551BB06F9" }, "geometry": { "type": "Point", "coordinates": [ 488145.309789000020828, 709232.000375999952666 ] } },
{ "type": "Feature", "properties": { "OBJECTID_12": 686, "SETTLEMENT": "33013", "SETTL_NAME": "Mín Lárach", "EAST": 588291.17532699998, "NORTH": 932763.39884499996, "GUID": "2D49BF65-F554-4A39-8A79-4DF5A2D2984E" }, "geometry": { "type": "Point", "coordinates": [ 588291.175326999975368, 932763.398844999959692 ] } },
{ "type": "Feature", "properties": { "OBJECTID_12": 689, "SETTLEMENT": "18023", "SETTL_NAME": "Béal Átha An Ghaorthaidh", "EAST": 514949.16926599998, "NORTH": 567037.51110899996, "GUID": "157C8C92-DD36-4530-9E3E-5148C87341A4" }, "geometry": { "type": "Point", "coordinates": [ 514949.169265999982599, 567037.511108999955468 ] } },
{ "type": "Feature", "properties": { "OBJECTID_12": 693, "SETTLEMENT": "27032", "SETTL_NAME": "Baile Chláir", "EAST": 537088.28488599998, "NORTH": 732751.80721700005, "GUID": "1D1056D8-A8DC-4F0B-A635-61C4BA52CB12" }, "geometry": { "type": "Point", "coordinates": [ 537088.284885999979451, 732751.807217000052333 ] } },
{ "type": "Feature", "properties": { "OBJECTID_12": 721, "SETTLEMENT": "27005", "SETTL_NAME": "Cluain Bú", "EAST": 532411.85483500001, "NORTH": 736616.36337299994, "GUID": "EA5F007E-3ADA-40AF-8F51-19670EAE6672" }, "geometry": { "type": "Point", "coordinates": [ 532411.854835, 736616.36337299994193 ] } },
{ "type": "Feature", "properties": { "OBJECTID_12": 746, "SETTLEMENT": "33051", "SETTL_NAME": "Gort An Choirce", "EAST": 591253.88493900001, "NORTH": 930150.67992599995, "GUID": "03E91C35-5E2A-4025-865F-18BCC8ACF86B" }, "geometry": { "type": "Point", "coordinates": [ 591253.88493900001049, 930150.679925999953412 ] } },
{ "type": "Feature", "properties": { "OBJECTID_12": 760, "SETTLEMENT": "33019", "SETTL_NAME": "Gleann Cholm Cille", "EAST": 552909.69897799997, "NORTH": 884599.82959700003, "GUID": "596BBC2A-E9AD-4421-8196-399B30590119" }, "geometry": { "type": "Point", "coordinates": [ 552909.698977999971248, 884599.829597000032663 ] } },
{ "type": "Feature", "properties": { "OBJECTID_12": 770, "SETTLEMENT": "33040", "SETTL_NAME": "Cnoc Na Muirleog", "EAST": 610338.14735900005, "NORTH": 938755.23279100005, "GUID": "8B5D476B-19D7-4695-86A9-41BF5AA1AE49" }, "geometry": { "type": "Point", "coordinates": [ 610338.147359000053257, 938755.232791000045836 ] } },
{ "type": "Feature", "properties": { "OBJECTID_12": 772, "SETTLEMENT": "33021", "SETTL_NAME": "Cill Charthaigh", "EAST": 562009.59927899996, "NORTH": 876175.29711699998, "GUID": "3A25DC4E-886D-4C4B-8659-4473C87E47A0" }, "geometry": { "type": "Point", "coordinates": [ 562009.599278999958187, 876175.297116999980062 ] } },
{ "type": "Feature", "properties": { "OBJECTID_12": 785, "SETTLEMENT": "33014", "SETTL_NAME": "Anagaire", "EAST": 579938.83291799994, "NORTH": 919228.47610600002, "GUID": "A291CBBC-172C-47D2-BCEB-112B4ECFC4FE" }, "geometry": { "type": "Point", "coordinates": [ 579938.832917999941856, 919228.476106000016443 ] } },
{ "type": "Feature", "properties": { "OBJECTID_12": 786, "SETTLEMENT": "33012", "SETTL_NAME": "An Fál Carrach", "EAST": 593275.13040400005, "NORTH": 932308.63668400003, "GUID": "CE895B13-FF99-49CC-B0D7-3C202B5773BA" }, "geometry": { "type": "Point", "coordinates": [ 593275.130404000054114, 932308.636684000026435 ] } },
{ "type": "Feature", "properties": { "OBJECTID_12": 799, "SETTLEMENT": "33009", "SETTL_NAME": "An Bun Beag-Doirí Beaga", "EAST": 581472.247, "NORTH": 925712.13584, "GUID": "BFDCDF78-2F7E-4B2E-A732-29B9BBDDB958" }, "geometry": { "type": "Point", "coordinates": [ 581472.246999999973923, 925712.13584 ] } },
{ "type": "Feature", "properties": { "OBJECTID_12": 800, "SETTLEMENT": "33016", "SETTL_NAME": "Ailt An Chorráin", "EAST": 572711.607097, "NORTH": 915061.74344700004, "GUID": "7B7FABC3-66AB-4DEC-9E24-DB1AEA62273D" }, "geometry": { "type": "Point", "coordinates": [ 572711.607097, 915061.743447000044398 ] } },
{ "type": "Feature", "properties": { "OBJECTID_12": 809, "SETTLEMENT": "33018", "SETTL_NAME": "An Clochán Liath", "EAST": 576954.59448700002, "NORTH": 911294.23897800001, "GUID": "33706C1E-10B3-4571-9018-1B5A00B08FF6" }, "geometry": { "type": "Point", "coordinates": [ 576954.594487000023946, 911294.238978 ] } },
{ "type": "Feature", "properties": { "OBJECTID_12": 817, "SETTLEMENT": "33023", "SETTL_NAME": "Loch An Iúir", "EAST": 581467.25136300002, "NORTH": 916847.01471400005, "GUID": "71046AFB-2745-4C59-AFA3-3A251A6EDD04" }, "geometry": { "type": "Point", "coordinates": [ 581467.251363000017591, 916847.014714000048116 ] } },
{ "type": "Feature", "properties": { "OBJECTID_12": 867, "SETTLEMENT": "29036", "SETTL_NAME": "Dumha Thuama", "EAST": 472784.05842800002, "NORTH": 815443.30056, "GUID": "7BCDE43A-AAF4-43B9-9056-22B7BD5F09C6" }, "geometry": { "type": "Point", "coordinates": [ 472784.058428000018466, 815443.30056 ] } }
]
}
